CCSDS_OMM_VERS = 2.0
CREATION_DATE  = 
ORIGINATOR     = 

OBJECT_NAME    = UNKNOWN
OBJECT_ID      = 
CENTER_NAME    = EARTH
REF_FRAME      = TEME
TIME_SYSTEM    = UTC
MEAN_ELEMENT_THEORY = SGP/SGP4

EPOCH          = 2025-12-17T08:20:24.566784
MEAN_MOTION    = 14.46955740
ECCENTRICITY   = .0345892
INCLINATION    = 65.7516
RA_OF_ASC_NODE = 16.0173
ARG_OF_PERICENTER = 310.8711
MEAN_ANOMALY   = 46.2880

EPHEMERIS_TYPE = 0
CLASSIFICATION_TYPE = U
NORAD_CAT_ID   = 81323
ELEMENT_SET_NO = 999
REV_AT_EPOCH   = 11372
BSTAR          = .20746E-2
MEAN_MOTION_DOT = .16031E-3
MEAN_MOTION_DDOT = 0

CCSDS_OMM_VERS = 2.0
CREATION_DATE  = 
ORIGINATOR     = 

OBJECT_NAME    = UNKNOWN
OBJECT_ID      = 
CENTER_NAME    = EARTH
REF_FRAME      = TEME
TIME_SYSTEM    = UTC
MEAN_ELEMENT_THEORY = SGP/SGP4

EPOCH          = 2025-12-20T09:44:47.914368
MEAN_MOTION    = 13.22157222
ECCENTRICITY   = .0831743
INCLINATION    = 65.8189
RA_OF_ASC_NODE = 112.6411
ARG_OF_PERICENTER = 26.4858
MEAN_ANOMALY   = 337.6293

EPHEMERIS_TYPE = 0
CLASSIFICATION_TYPE = U
NORAD_CAT_ID   = 81329
ELEMENT_SET_NO = 999
REV_AT_EPOCH   = 57909
BSTAR          = .26196E-3
MEAN_MOTION_DOT = .646E-5
MEAN_MOTION_DDOT = 0

CCSDS_OMM_VERS = 2.0
CREATION_DATE  = 
ORIGINATOR     = 

OBJECT_NAME    = UNKNOWN
OBJECT_ID      = 
CENTER_NAME    = EARTH
REF_FRAME      = TEME
TIME_SYSTEM    = UTC
MEAN_ELEMENT_THEORY = SGP/SGP4

EPOCH          = 2025-12-20T06:58:34.641408
MEAN_MOTION    = 15.03908435
ECCENTRICITY   = .0006639
INCLINATION    = 85.8708
RA_OF_ASC_NODE = 195.3195
ARG_OF_PERICENTER = 226.4198
MEAN_ANOMALY   = 133.6485

EPHEMERIS_TYPE = 0
CLASSIFICATION_TYPE = U
NORAD_CAT_ID   = 81343
ELEMENT_SET_NO = 999
REV_AT_EPOCH   = 45545
BSTAR          = .26815E-3
MEAN_MOTION_DOT = .3727E-4
MEAN_MOTION_DDOT = 0

CCSDS_OMM_VERS = 2.0
CREATION_DATE  = 
ORIGINATOR     = 

OBJECT_NAME    = UNKNOWN
OBJECT_ID      = 
CENTER_NAME    = EARTH
REF_FRAME      = TEME
TIME_SYSTEM    = UTC
MEAN_ELEMENT_THEORY = SGP/SGP4

EPOCH          = 2025-12-18T02:52:27.989760
MEAN_MOTION    = 13.78840933
ECCENTRICITY   = .0117829
INCLINATION    = 66.7995
RA_OF_ASC_NODE = 39.1198
ARG_OF_PERICENTER = 319.7720
MEAN_ANOMALY   = 39.4675

EPHEMERIS_TYPE = 0
CLASSIFICATION_TYPE = U
NORAD_CAT_ID   = 81359
ELEMENT_SET_NO = 999
REV_AT_EPOCH   = 60622
BSTAR          = .80937E-3
MEAN_MOTION_DOT = .794E-5
MEAN_MOTION_DDOT = 0

CCSDS_OMM_VERS = 2.0
CREATION_DATE  = 
ORIGINATOR     = 

OBJECT_NAME    = UNKNOWN
OBJECT_ID      = 
CENTER_NAME    = EARTH
REF_FRAME      = TEME
TIME_SYSTEM    = UTC
MEAN_ELEMENT_THEORY = SGP/SGP4

EPOCH          = 2025-12-17T22:02:31.216704
MEAN_MOTION    = 13.45150569
ECCENTRICITY   = .0709802
INCLINATION    = 65.8847
RA_OF_ASC_NODE = 59.7527
ARG_OF_PERICENTER = 79.1225
MEAN_ANOMALY   = 288.8818

EPHEMERIS_TYPE = 0
CLASSIFICATION_TYPE = U
NORAD_CAT_ID   = 81366
ELEMENT_SET_NO = 999
REV_AT_EPOCH   = 6665
BSTAR          = .16841E-3
MEAN_MOTION_DOT = .384E-5
MEAN_MOTION_DDOT = 0

CCSDS_OMM_VERS = 2.0
CREATION_DATE  = 
ORIGINATOR     = 

OBJECT_NAME    = UNKNOWN
OBJECT_ID      = 
CENTER_NAME    = EARTH
REF_FRAME      = TEME
TIME_SYSTEM    = UTC
MEAN_ELEMENT_THEORY = SGP/SGP4

EPOCH          = 2025-12-15T00:29:41.942976
MEAN_MOTION    = 14.70293799
ECCENTRICITY   = .0070126
INCLINATION    = 98.8144
RA_OF_ASC_NODE = 85.6265
ARG_OF_PERICENTER = 358.1968
MEAN_ANOMALY   = 1.8972

EPHEMERIS_TYPE = 0
CLASSIFICATION_TYPE = U
NORAD_CAT_ID   = 81371
ELEMENT_SET_NO = 999
REV_AT_EPOCH   = 64217
BSTAR          = .37982E-3
MEAN_MOTION_DOT = .232E-4
MEAN_MOTION_DDOT = 0

CCSDS_OMM_VERS = 2.0
CREATION_DATE  = 
ORIGINATOR     = 

OBJECT_NAME    = UNKNOWN
OBJECT_ID      = 
CENTER_NAME    = EARTH
REF_FRAME      = TEME
TIME_SYSTEM    = UTC
MEAN_ELEMENT_THEORY = SGP/SGP4

EPOCH          = 2025-12-19T05:58:59.941632
MEAN_MOTION    = 14.36313735
ECCENTRICITY   = .0083632
INCLINATION    = 71.0482
RA_OF_ASC_NODE = 342.4203
ARG_OF_PERICENTER = 74.2006
MEAN_ANOMALY   = 286.8330

EPHEMERIS_TYPE = 0
CLASSIFICATION_TYPE = U
NORAD_CAT_ID   = 81386
ELEMENT_SET_NO = 999
REV_AT_EPOCH   = 62517
BSTAR          = .12698E-2
MEAN_MOTION_DOT = .3818E-4
MEAN_MOTION_DDOT = 0

CCSDS_OMM_VERS = 2.0
CREATION_DATE  = 
ORIGINATOR     = 

OBJECT_NAME    = UNKNOWN
OBJECT_ID      = 
CENTER_NAME    = EARTH
REF_FRAME      = TEME
TIME_SYSTEM    = UTC
MEAN_ELEMENT_THEORY = SGP/SGP4

EPOCH          = 2025-12-15T23:25:11.989344
MEAN_MOTION    = 12.35635489
ECCENTRICITY   = .0165329
INCLINATION    = 103.1059
RA_OF_ASC_NODE = 238.9104
ARG_OF_PERICENTER = 138.8219
MEAN_ANOMALY   = 222.5446

EPHEMERIS_TYPE = 0
CLASSIFICATION_TYPE = U
NORAD_CAT_ID   = 81390
ELEMENT_SET_NO = 999
REV_AT_EPOCH   = 50049
BSTAR          = -.84958E-3
MEAN_MOTION_DOT = -.162E-5
MEAN_MOTION_DDOT = 0

CCSDS_OMM_VERS = 2.0
CREATION_DATE  = 
ORIGINATOR     = 

OBJECT_NAME    = UNKNOWN
OBJECT_ID      = 
CENTER_NAME    = EARTH
REF_FRAME      = TEME
TIME_SYSTEM    = UTC
MEAN_ELEMENT_THEORY = SGP/SGP4

EPOCH          = 2025-12-17T05:59:48.630624
MEAN_MOTION    = 13.81709218
ECCENTRICITY   = .0041759
INCLINATION    = 100.3981
RA_OF_ASC_NODE = 339.9260
ARG_OF_PERICENTER = 17.5392
MEAN_ANOMALY   = 358.6710

EPHEMERIS_TYPE = 0
CLASSIFICATION_TYPE = U
NORAD_CAT_ID   = 81392
ELEMENT_SET_NO = 999
REV_AT_EPOCH   = 60280
BSTAR          = .29127E-2
MEAN_MOTION_DOT = .3083E-4
MEAN_MOTION_DDOT = 0

CCSDS_OMM_VERS = 2.0
CREATION_DATE  = 
ORIGINATOR     = 

OBJECT_NAME    = UNKNOWN
OBJECT_ID      = 
CENTER_NAME    = EARTH
REF_FRAME      = TEME
TIME_SYSTEM    = UTC
MEAN_ELEMENT_THEORY = SGP/SGP4

EPOCH          = 2025-12-15T20:48:48.543264
MEAN_MOTION    = 13.88884005
ECCENTRICITY   = .0160982
INCLINATION    = 99.4690
RA_OF_ASC_NODE = 38.0911
ARG_OF_PERICENTER = 215.3119
MEAN_ANOMALY   = 143.7291

EPHEMERIS_TYPE = 0
CLASSIFICATION_TYPE = U
NORAD_CAT_ID   = 81405
ELEMENT_SET_NO = 999
REV_AT_EPOCH   = 56223
BSTAR          = .12249E-2
MEAN_MOTION_DOT = .1596E-4
MEAN_MOTION_DDOT = 0

CCSDS_OMM_VERS = 2.0
CREATION_DATE  = 
ORIGINATOR     = 

OBJECT_NAME    = UNKNOWN
OBJECT_ID      = 
CENTER_NAME    = EARTH
REF_FRAME      = TEME
TIME_SYSTEM    = UTC
MEAN_ELEMENT_THEORY = SGP/SGP4

EPOCH          = 2025-11-29T23:25:05.808288
MEAN_MOTION    = 13.12098095
ECCENTRICITY   = .0866885
INCLINATION    = 65.8150
RA_OF_ASC_NODE = 183.4971
ARG_OF_PERICENTER = 325.4234
MEAN_ANOMALY   = 29.3212

EPHEMERIS_TYPE = 0
CLASSIFICATION_TYPE = U
NORAD_CAT_ID   = 81406
ELEMENT_SET_NO = 999
REV_AT_EPOCH   = 53200
BSTAR          = .77531E-3
MEAN_MOTION_DOT = .1902E-4
MEAN_MOTION_DDOT = 0

CCSDS_OMM_VERS = 2.0
CREATION_DATE  = 
ORIGINATOR     = 

OBJECT_NAME    = UNKNOWN
OBJECT_ID      = 
CENTER_NAME    = EARTH
REF_FRAME      = TEME
TIME_SYSTEM    = UTC
MEAN_ELEMENT_THEORY = SGP/SGP4

EPOCH          = 2025-12-16T21:53:00.385728
MEAN_MOTION    = 14.06953641
ECCENTRICITY   = .0085345
INCLINATION    = 98.7490
RA_OF_ASC_NODE = 232.9090
ARG_OF_PERICENTER = 26.7983
MEAN_ANOMALY   = 333.7558

EPHEMERIS_TYPE = 0
CLASSIFICATION_TYPE = U
NORAD_CAT_ID   = 81427
ELEMENT_SET_NO = 999
REV_AT_EPOCH   = 55235
BSTAR          = .4736E-3
MEAN_MOTION_DOT = .774E-5
MEAN_MOTION_DDOT = 0

